{"type": "FeatureCollection", "features": [ {"type": "Feature", "properties": {"norad_id": 66558, "name": "STARLINK-35695", "group": "last-30-days", "lat": 32.867343783561225, "lon": 167.02455090530188, "alt_km": 411.7232064656455, "timestamp": "2025-12-12T09:49:07.481252+00:00", "meta": {"OBJECT_NAME": "STARLINK-35695", "OBJECT_ID": "2025-268B", "EPOCH": "2025-12-12T04:00:01.998720", "MEAN_MOTION": 15.50631551, "ECCENTRICITY": 0.0003463, "INCLINATION": 43.0003, "RA_OF_ASC_NODE": 124.5456, "ARG_OF_PERICENTER": 266.7143, "MEAN_ANOMALY": 231.1861, "EPHEMERIS_TYPE": 0, "CLASSIFICATION_TYPE": "U", "NORAD_CAT_ID": 66558, "ELEMENT_SET_NO": 999, "REV_AT_EPOCH": 457, "BSTAR": -0.0018423, "MEAN_MOTION_DOT": -0.00107183, "MEAN_MOTION_DDOT": 0}, "tle": {"line1": "1 66558U 25268B   25346.16668980 -.00107183  00000+0 -18423-2 0  9998", "line2": "2 66558  43.0003 124.5456 0003463 266.7143 231.1861 15.50631551  4574"}}, "geometry": {"type": "Point", "coordinates": [167.02455090530188, 32.867343783561225]}}, {"type": "Feature", "properties": {"norad_id": 66559, "name": "STARLINK-35419", "group": "last-30-days", "lat": 33.759017427751886, "lon": 168.953670533606, "alt_km": 411.71502374244847, "timestamp": "2025-12-12T09:49:07.481262+00:00", "meta": {"OBJECT_NAME": "STARLINK-35419", "OBJECT_ID": "2025-268C", "EPOCH": "2025-12-12T04:00:01.998720", "MEAN_MOTION": 15.50437102, "ECCENTRICITY": 0.0002732, "INCLINATION": 43.0002, "RA_OF_ASC_NODE": 124.5409, "ARG_OF_PERICENTER": 246.0356, "MEAN_ANOMALY": 253.8495, "EPHEMERIS_TYPE": 0, "CLASSIFICATION_TYPE": "U", "NORAD_CAT_ID": 66559, "ELEMENT_SET_NO": 999, "REV_AT_EPOCH": 457, "BSTAR": 0.0017818, "MEAN_MOTION_DOT": 0.00105075, "MEAN_MOTION_DDOT": 0}, "tle": {"line1": "1 66559U 25268C   25346.16668980  .00105075  00000+0  17818-2 0  9992", "line2": "2 66559  43.0002 124.5409 0002732 246.0356 253.8495 15.50437102  4577"}}, "geometry": {"type": "Point", "coordinates": [168.953670533606, 33.759017427751886]}}, {"type": "Feature", "properties": {"norad_id": 66560, "name": "STARLINK-35411", "group": "last-30-days", "lat": 34.643367916798326, "lon": 170.97781188324427, "alt_km": 410.6443671569132, "timestamp": "2025-12-12T09:49:07.481274+00:00", "meta": {"OBJECT_NAME": "STARLINK-35411", "OBJECT_ID": "2025-268D", "EPOCH": "2025-12-12T04:00:01.998720", "MEAN_MOTION": 15.50585828, "ECCENTRICITY": 0.0002092, "INCLINATION": 43.0002, "RA_OF_ASC_NODE": 124.5367, "ARG_OF_PERICENTER": 269.9251, "MEAN_ANOMALY": 231.7379, "EPHEMERIS_TYPE": 0, "CLASSIFICATION_TYPE": "U", "NORAD_CAT_ID": 66560, "ELEMENT_SET_NO": 999, "REV_AT_EPOCH": 457, "BSTAR": 0.00012033, "MEAN_MOTION_DOT": 6.725e-05, "MEAN_MOTION_DDOT": 0}, "tle": {"line1": "1 66560U 25268D   25346.16668980  .00006725  00000+0  12033-3 0  9991", "line2": "2 66560  43.0002 124.5367 0002092 269.9251 231.7379 15.50585828  4574"}}, "geometry": {"type": "Point", "coordinates": [170.97781188324427, 34.643367916798326]}}, {"type": "Feature", "properties": {"norad_id": 66561, "name": "STARLINK-35305", "group": "last-30-days", "lat": 36.34810055250009, "lon": 175.26429076721772, "alt_km": 410.23386419895996, "timestamp": "2025-12-12T09:49:07.481285+00:00", "meta": {"OBJECT_NAME": "STARLINK-35305", "OBJECT_ID": "2025-268E", "EPOCH": "2025-12-12T04:00:01.998720", "MEAN_MOTION": 15.50498322, "ECCENTRICITY": 0.0001505, "INCLINATION": 43.0001, "RA_OF_ASC_NODE": 124.5267, "ARG_OF_PERICENTER": 266.4236, "MEAN_ANOMALY": 239.1889, "EPHEMERIS_TYPE": 0, "CLASSIFICATION_TYPE": "U", "NORAD_CAT_ID": 66561, "ELEMENT_SET_NO": 999, "REV_AT_EPOCH": 452, "BSTAR": 0.0016373, "MEAN_MOTION_DOT": 0.00096625, "MEAN_MOTION_DDOT": 0}, "tle": {"line1": "1 66561U 25268E   25346.16668980  .00096625  00000+0  16373-2 0  9990", "line2": "2 66561  43.0001 124.5267 0001505 266.4236 239.1889 15.50498322  4521"}}, "geometry": {"type": "Point", "coordinates": [175.26429076721772, 36.34810055250009]}}, {"type": "Feature", "properties": {"norad_id": 66562, "name": "STARLINK-35579", "group": "last-30-days", "lat": 35.52935592413127, "lon": 173.13398534655246, "alt_km": 410.3636202412408, "timestamp": "2025-12-12T09:49:07.481295+00:00", "meta": {"OBJECT_NAME": "STARLINK-35579", "OBJECT_ID": "2025-268F", "EPOCH": "2025-12-12T04:00:01.998720", "MEAN_MOTION": 15.50544822, "ECCENTRICITY": 0.000162, "INCLINATION": 43.0002, "RA_OF_ASC_NODE": 124.5308, "ARG_OF_PERICENTER": 269.8375, "MEAN_ANOMALY": 233.8386, "EPHEMERIS_TYPE": 0, "CLASSIFICATION_TYPE": "U", "NORAD_CAT_ID": 66562, "ELEMENT_SET_NO": 999, "REV_AT_EPOCH": 457, "BSTAR": 0.00032676, "MEAN_MOTION_DOT": 0.00018851, "MEAN_MOTION_DDOT": 0}, "tle": {"line1": "1 66562U 25268F   25346.16668980  .00018851  00000+0  32676-3 0  9991", "line2": "2 66562  43.0002 124.5308 0001620 269.8375 233.8386 15.50544822  4573"}}, "geometry": {"type": "Point", "coordinates": [173.13398534655246, 35.52935592413127]}}, {"type": "Feature", "properties": {"norad_id": 66563, "name": "STARLINK-35437", "group": "last-30-days", "lat": 37.13155228106642, "lon": 177.44664040672257, "alt_km": 410.181102482803, "timestamp": "2025-12-12T09:49:07.481305+00:00", "meta": {"OBJECT_NAME": "STARLINK-35437", "OBJECT_ID": "2025-268G", "EPOCH": "2025-12-12T04:00:01.998720", "MEAN_MOTION": 15.50517838, "ECCENTRICITY": 0.0001655, "INCLINATION": 43.0002, "RA_OF_ASC_NODE": 124.521, "ARG_OF_PERICENTER": 268.8268, "MEAN_ANOMALY": 238.6916, "EPHEMERIS_TYPE": 0, "CLASSIFICATION_TYPE": "U", "NORAD_CAT_ID": 66563, "ELEMENT_SET_NO": 999, "REV_AT_EPOCH": 457, "BSTAR": 0.0011594, "MEAN_MOTION_DOT": 0.00068121, "MEAN_MOTION_DDOT": 0}, "tle": {"line1": "1 66563U 25268G   25346.16668980  .00068121  00000+0  11594-2 0  9992", "line2": "2 66563  43.0002 124.5210 0001655 268.8268 238.6916 15.50517838  4573"}}, "geometry": {"type": "Point", "coordinates": [177.44664040672257, 37.13155228106642]}}, {"type": "Feature", "properties": {"norad_id": 66564, "name": "STARLINK-35358", "group": "last-30-days", "lat": 37.88113347971776, "lon": 179.69831242361428, "alt_km": 409.9764813685442, "timestamp": "2025-12-12T09:49:07.481317+00:00", "meta": {"OBJECT_NAME": "STARLINK-35358", "OBJECT_ID": "2025-268H", "EPOCH": "2025-12-12T04:00:01.998720", "MEAN_MOTION": 15.50580998, "ECCENTRICITY": 0.0001518, "INCLINATION": 43.0001, "RA_OF_ASC_NODE": 124.5171, "ARG_OF_PERICENTER": 267.2614, "MEAN_ANOMALY": 242.1619, "EPHEMERIS_TYPE": 0, "CLASSIFICATION_TYPE": "U", "NORAD_CAT_ID": 66564, "ELEMENT_SET_NO": 999, "REV_AT_EPOCH": 452, "BSTAR": -0.00054078, "MEAN_MOTION_DOT": -0.00031939, "MEAN_MOTION_DDOT": 0}, "tle": {"line1": "1 66564U 25268H   25346.16668980 -.00031939  00000+0 -54078-3 0  9997", "line2": "2 66564  43.0001 124.5171 0001518 267.2614 242.1619 15.50580998  4527"}}, "geometry": {"type": "Point", "coordinates": [179.69831242361428, 37.88113347971776]}}, {"type": "Feature", "properties": {"norad_id": 66565, "name": "STARLINK-35893", "group": "last-30-days", "lat": 38.57697961260773, "lon": -178.0403454551839, "alt_km": 409.96390643675204, "timestamp": "2025-12-12T09:49:07.481328+00:00", "meta": {"OBJECT_NAME": "STARLINK-35893", "OBJECT_ID": "2025-268J", "EPOCH": "2025-12-12T04:00:01.998720", "MEAN_MOTION": 15.50549543, "ECCENTRICITY": 0.0001624, "INCLINATION": 43.0002, "RA_OF_ASC_NODE": 124.5118, "ARG_OF_PERICENTER": 267.2937, "MEAN_ANOMALY": 244.056, "EPHEMERIS_TYPE": 0, "CLASSIFICATION_TYPE": "U", "NORAD_CAT_ID": 66565, "ELEMENT_SET_NO": 999, "REV_AT_EPOCH": 457, "BSTAR": 0.00029279, "MEAN_MOTION_DOT": 0.00016854, "MEAN_MOTION_DDOT": 0}, "tle": {"line1": "1 66565U 25268J   25346.16668980  .00016854  00000+0  29279-3 0  9990", "line2": "2 66565  43.0002 124.5118 0001624 267.2937 244.0560 15.50549543  4578"}}, "geometry": {"type": "Point", "coordinates": [-178.0403454551839, 38.57697961260773]}}, {"type": "Feature", "properties": {"norad_id": 66566, "name": "STARLINK-35871", "group": "last-30-days", "lat": 39.221918990092384, "lon": -175.7591027778485, "alt_km": 409.6480393704842, "timestamp": "2025-12-12T09:49:07.481338+00:00", "meta": {"OBJECT_NAME": "STARLINK-35871", "OBJECT_ID": "2025-268K", "EPOCH": "2025-12-12T04:00:01.998720", "MEAN_MOTION": 15.50563397, "ECCENTRICITY": 0.000165, "INCLINATION": 43.0002, "RA_OF_ASC_NODE": 124.5068, "ARG_OF_PERICENTER": 288.242, "MEAN_ANOMALY": 224.9812, "EPHEMERIS_TYPE": 0, "CLASSIFICATION_TYPE": "U", "NORAD_CAT_ID": 66566, "ELEMENT_SET_NO": 999, "REV_AT_EPOCH": 457, "BSTAR": 0.00021165, "MEAN_MOTION_DOT": 0.00012087, "MEAN_MOTION_DDOT": 0}, "tle": {"line1": "1 66566U 25268K   25346.16668980  .00012087  00000+0  21165-3 0  9991", "line2": "2 66566  43.0002 124.5068 0001650 288.2420 224.9812 15.50563397  4572"}}, "geometry": {"type": "Point", "coordinates": [-175.7591027778485, 39.221918990092384]}}, {"type": "Feature", "properties": {"norad_id": 66567, "name": "STARLINK-35825", "group": "last-30-days", "lat": 39.836467418502004, "lon": -173.37448472453465, "alt_km": 409.651569994473, "timestamp": "2025-12-12T09:49:07.481348+00:00", "meta": {"OBJECT_NAME": "STARLINK-35825", "OBJECT_ID": "2025-268L", "EPOCH": "2025-12-12T04:00:01.998720", "MEAN_MOTION": 15.50543452, "ECCENTRICITY": 0.0001401, "INCLINATION": 43.0002, "RA_OF_ASC_NODE": 124.5026, "ARG_OF_PERICENTER": 270.8508, "MEAN_ANOMALY": 244.3356, "EPHEMERIS_TYPE": 0, "CLASSIFICATION_TYPE": "U", "NORAD_CAT_ID": 66567, "ELEMENT_SET_NO": 999, "REV_AT_EPOCH": 457, "BSTAR": 0.00023868, "MEAN_MOTION_DOT": 0.00013668, "MEAN_MOTION_DDOT": 0}, "tle": {"line1": "1 66567U 25268L   25346.16668980  .00013668  00000+0  23868-3 0  9990", "line2": "2 66567  43.0002 124.5026 0001401 270.8508 244.3356 15.50543452  4574"}}, "geometry": {"type": "Point", "coordinates": [-173.37448472453465, 39.836467418502004]}}]}